[{"OBJECT_NAME":"STARLINK-5878","OBJECT_ID":"2023-037AT","EPOCH":"2026-03-09T23:11:06.774432","MEAN_MOTION":14.98332254,"ECCENTRICITY":0.00025462,"INCLINATION":69.9981,"RA_OF_ASC_NODE":263.7959,"ARG_OF_PERICENTER":271.1445,"MEAN_ANOMALY":88.9423,"EPHEMERIS_TYPE":0,"CLASSIFICATION_TYPE":"U","NORAD_CAT_ID":55955,"ELEMENT_SET_NO":999,"REV_AT_EPOCH":16451,"BSTAR":-8.99554e-7,"MEAN_MOTION_DOT":-1.04e-6,"MEAN_MOTION_DDOT":0},{"OBJECT_NAME":"ICEYE-X40","OBJECT_ID":"2024-149CK","EPOCH":"2026-03-09T18:13:16.348800","MEAN_MOTION":14.97556326,"ECCENTRICITY":0.00059832,"INCLINATION":97.6865,"RA_OF_ASC_NODE":146.8579,"ARG_OF_PERICENTER":65.2061,"MEAN_ANOMALY":294.9783,"EPHEMERIS_TYPE":0,"CLASSIFICATION_TYPE":"U","NORAD_CAT_ID":60549,"ELEMENT_SET_NO":999,"REV_AT_EPOCH":8519,"BSTAR":0.00028351559,"MEAN_MOTION_DOT":3.253e-5,"MEAN_MOTION_DDOT":0}]
